{"type":"FeatureCollection","features":[{"type":"Feature","properties":{"arc_id":"Laemchabang-Chonburi"},"geometry":{"coordinates":[[100.91710615878975,13.08806040881315],[100.98601029871526,13.368152651283793]],"type":"LineString"},"id":0},{"type":"Feature","properties":{"arc_id":"Ranong-Phuket"},"geometry":{"coordinates":[[98.6315787387353,9.967372216234864],[98.35062534658749,7.887875071216683]],"type":"LineString"}},{"type":"Feature","properties":{"arc_id":"Chonburi-Chachoengsao-Bangkok"},"geometry":{"coordinates":[[100.98668576890452,13.367002017035432],[101.04818388071612,13.660710389776028],[100.49930712146016,13.746346314787743]],"type":"LineString"}},{"type":"Feature","properties":{"arc_id":"Chonburi-NakhonRatchasrima-KhonKaen"},"geometry":{"coordinates":[[100.99340970993501,13.433340136114822],[102.10291080514548,14.982042658703406],[102.83289070826487,16.435542635405085]],"type":"LineString"}}]}