{
  "type": "FeatureCollection",
  "features": [

    // ─────────────────────────────────────────────────────────────
    // ROUTE GROUP 1: Nagoya Works → NS-Siam United Steel (NS-SUS)
    //   via Port of Nagoya → Map Ta Phut Port
    //   End customers: Toyota, Isuzu, Mitsubishi, AutoAlliance
    // ─────────────────────────────────────────────────────────────

    {
      "type": "Feature",
      "properties": {
        "route_id": "R1-A",
        "origin": "Nagoya Works",
        "destination": "Toyota Motor (Gateway)",
        "waypoints": ["Port of Nagoya", "Map Ta Phut Port", "NS-Siam United Steel (NS-SUS)"],
        "segment": "Japan → Thailand",
        "product_type": "Cold Rolled Steel",
        "end_customer": "Toyota Motor (Gateway)",
        "demand_metric_tons": 37500,
        "stroke": "#e74c3c",
        "stroke-width": 2
      },
      "geometry": {
        "type": "LineString",
        "coordinates": [
          [136.8872, 35.0444],
          [136.8775, 35.0531],
          [101.1470, 12.6530],
          [101.1444, 12.6953],
          [101.3735, 13.5935]
        ]
      }
    },
    {
      "type": "Feature",
      "properties": {
        "route_id": "R1-B",
        "origin": "Nagoya Works",
        "destination": "Isuzu Motors (Gateway)",
        "waypoints": ["Port of Nagoya", "Map Ta Phut Port", "NS-Siam United Steel (NS-SUS)"],
        "segment": "Japan → Thailand",
        "product_type": "Cold Rolled Steel",
        "end_customer": "Isuzu Motors (Gateway)",
        "demand_metric_tons": 28000,
        "stroke": "#e74c3c",
        "stroke-width": 2
      },
      "geometry": {
        "type": "LineString",
        "coordinates": [
          [136.8872, 35.0444],
          [136.8775, 35.0531],
          [101.1470, 12.6530],
          [101.1444, 12.6953],
          [101.3698, 13.5852]
        ]
      }
    },
    {
      "type": "Feature",
      "properties": {
        "route_id": "R1-C",
        "origin": "Nagoya Works",
        "destination": "Mitsubishi Motors",
        "waypoints": ["Port of Nagoya", "Map Ta Phut Port", "NS-Siam United Steel (NS-SUS)"],
        "segment": "Japan → Thailand",
        "product_type": "Cold Rolled Steel",
        "end_customer": "Mitsubishi Motors",
        "demand_metric_tons": 26600,
        "stroke": "#e74c3c",
        "stroke-width": 2
      },
      "geometry": {
        "type": "LineString",
        "coordinates": [
          [136.8872, 35.0444],
          [136.8775, 35.0531],
          [101.1470, 12.6530],
          [101.1444, 12.6953],
          [100.9161, 13.0844]
        ]
      }
    },
    {
      "type": "Feature",
      "properties": {
        "route_id": "R1-D",
        "origin": "Nagoya Works",
        "destination": "AutoAlliance (Ford/Mazda)",
        "waypoints": ["Port of Nagoya", "Map Ta Phut Port", "NS-Siam United Steel (NS-SUS)"],
        "segment": "Japan → Thailand",
        "product_type": "Cold Rolled Steel",
        "end_customer": "AutoAlliance (Ford/Mazda)",
        "demand_metric_tons": 24500,
        "stroke": "#e74c3c",
        "stroke-width": 2
      },
      "geometry": {
        "type": "LineString",
        "coordinates": [
          [136.8872, 35.0444],
          [136.8775, 35.0531],
          [101.1470, 12.6530],
          [101.1444, 12.6953],
          [101.2185, 12.9774]
        ]
      }
    },

    // ─────────────────────────────────────────────────────────────
    // ROUTE GROUP 2: East Nippon Works (Kashima) → Nippon Steel Pipe (Thailand) (NSPT)
    //   via Port of Kashima → Laem Chabang Port
    //   End customers: Thai Honda, Yamaha Motor, Thai Summit, Denso
    // ─────────────────────────────────────────────────────────────

    {
      "type": "Feature",
      "properties": {
        "route_id": "R2-A",
        "origin": "East Nippon Works (Kashima)",
        "destination": "Thai Honda",
        "waypoints": ["Port of Kashima", "Laem Chabang Port", "Nippon Steel Pipe (Thailand)"],
        "segment": "Japan → Thailand",
        "product_type": "Pipe/Tube",
        "end_customer": "Thai Honda",
        "demand_metric_tons": 7000,
        "stroke": "#3498db",
        "stroke-width": 2
      },
      "geometry": {
        "type": "LineString",
        "coordinates": [
          [140.7070, 35.9230],
          [140.7120, 35.9180],
          [100.8947, 13.0587],
          [101.1712, 13.0185],
          [100.7954, 13.7845]
        ]
      }
    },
    {
      "type": "Feature",
      "properties": {
        "route_id": "R2-B",
        "origin": "East Nippon Works (Kashima)",
        "destination": "Yamaha Motor",
        "waypoints": ["Port of Kashima", "Laem Chabang Port", "Nippon Steel Pipe (Thailand)"],
        "segment": "Japan → Thailand",
        "product_type": "Pipe/Tube",
        "end_customer": "Yamaha Motor",
        "demand_metric_tons": 3500,
        "stroke": "#3498db",
        "stroke-width": 2
      },
      "geometry": {
        "type": "LineString",
        "coordinates": [
          [140.7070, 35.9230],
          [140.7120, 35.9180],
          [100.8947, 13.0587],
          [101.1712, 13.0185],
          [100.7180, 13.6110]
        ]
      }
    },
    {
      "type": "Feature",
      "properties": {
        "route_id": "R2-C",
        "origin": "East Nippon Works (Kashima)",
        "destination": "Thai Summit Group",
        "waypoints": ["Port of Kashima", "Laem Chabang Port", "Nippon Steel Pipe (Thailand)"],
        "segment": "Japan → Thailand",
        "product_type": "Pipe/Tube",
        "end_customer": "Thai Summit Group",
        "demand_metric_tons": 5000,
        "stroke": "#3498db",
        "stroke-width": 2
      },
      "geometry": {
        "type": "LineString",
        "coordinates": [
          [140.7070, 35.9230],
          [140.7120, 35.9180],
          [100.8947, 13.0587],
          [101.1712, 13.0185],
          [100.6725, 13.6185]
        ]
      }
    },
    {
      "type": "Feature",
      "properties": {
        "route_id": "R2-D",
        "origin": "East Nippon Works (Kashima)",
        "destination": "Denso (Thailand)",
        "waypoints": ["Port of Kashima", "Laem Chabang Port", "Nippon Steel Pipe (Thailand)"],
        "segment": "Japan → Thailand",
        "product_type": "Pipe/Tube",
        "end_customer": "Denso (Thailand)",
        "demand_metric_tons": 4200,
        "stroke": "#3498db",
        "stroke-width": 2
      },
      "geometry": {
        "type": "LineString",
        "coordinates": [
          [140.7070, 35.9230],
          [140.7120, 35.9180],
          [100.8947, 13.0587],
          [101.1712, 13.0185],
          [101.0020, 13.4075]
        ]
      }
    },

    // ─────────────────────────────────────────────────────────────
    // ROUTE GROUP 3: Kyushu Works (Yawata) → Nippon Steel Steel Processing
    //   via Port of Kitakyushu → Laem Chabang Port
    //   End customers: Topura, Thai Meira, Aisin Takaoka
    // ─────────────────────────────────────────────────────────────

    {
      "type": "Feature",
      "properties": {
        "route_id": "R3-A",
        "origin": "Kyushu Works (Yawata)",
        "destination": "Topura (Thailand)",
        "waypoints": ["Port of Kitakyushu (Yawata)", "Laem Chabang Port", "Nippon Steel Steel Processing"],
        "segment": "Japan → Thailand",
        "product_type": "Wire/Bar",
        "end_customer": "Topura (Thailand)",
        "demand_metric_tons": 3300,
        "stroke": "#2ecc71",
        "stroke-width": 2
      },
      "geometry": {
        "type": "LineString",
        "coordinates": [
          [130.8314, 33.9056],
          [130.8252, 33.9185],
          [100.8947, 13.0587],
          [101.1467, 13.0033],
          [101.1645, 12.9924]
        ]
      }
    },
    {
      "type": "Feature",
      "properties": {
        "route_id": "R3-B",
        "origin": "Kyushu Works (Yawata)",
        "destination": "Thai Meira",
        "waypoints": ["Port of Kitakyushu (Yawata)", "Laem Chabang Port", "Nippon Steel Steel Processing"],
        "segment": "Japan → Thailand",
        "product_type": "Wire/Bar",
        "end_customer": "Thai Meira",
        "demand_metric_tons": 2500,
        "stroke": "#2ecc71",
        "stroke-width": 2
      },
      "geometry": {
        "type": "LineString",
        "coordinates": [
          [130.8314, 33.9056],
          [130.8252, 33.9185],
          [100.8947, 13.0587],
          [101.1467, 13.0033],
          [101.1590, 12.9980]
        ]
      }
    },
    {
      "type": "Feature",
      "properties": {
        "route_id": "R3-C",
        "origin": "Kyushu Works (Yawata)",
        "destination": "Aisin Takaoka",
        "waypoints": ["Port of Kitakyushu (Yawata)", "Laem Chabang Port", "Nippon Steel Steel Processing"],
        "segment": "Japan → Thailand",
        "product_type": "Wire/Bar",
        "end_customer": "Aisin Takaoka",
        "demand_metric_tons": 2000,
        "stroke": "#2ecc71",
        "stroke-width": 2
      },
      "geometry": {
        "type": "LineString",
        "coordinates": [
          [130.8314, 33.9056],
          [130.8252, 33.9185],
          [100.8947, 13.0587],
          [101.1467, 13.0033],
          [101.0180, 13.0780]
        ]
      }
    },

    // ─────────────────────────────────────────────────────────────
    // NODE FEATURES (Points) — all key locations
    // ─────────────────────────────────────────────────────────────

    { "type": "Feature", "properties": { "name": "Nagoya Works", "type": "steelwork", "country": "JP", "marker-color": "#c0392b", "marker-symbol": "industry" }, "geometry": { "type": "Point", "coordinates": [136.8872, 35.0444] } },
    { "type": "Feature", "properties": { "name": "Port of Nagoya", "type": "export_port", "country": "JP", "marker-color": "#e67e22", "marker-symbol": "harbor" }, "geometry": { "type": "Point", "coordinates": [136.8775, 35.0531] } },
    { "type": "Feature", "properties": { "name": "Map Ta Phut Port", "type": "import_port", "country": "TH", "marker-color": "#e67e22", "marker-symbol": "harbor" }, "geometry": { "type": "Point", "coordinates": [101.1470, 12.6530] } },
    { "type": "Feature", "properties": { "name": "NS-Siam United Steel (NS-SUS)", "type": "factory", "country": "TH", "marker-color": "#8e44ad", "marker-symbol": "industry" }, "geometry": { "type": "Point", "coordinates": [101.1444, 12.6953] } },
    { "type": "Feature", "properties": { "name": "Toyota Motor (Gateway)", "type": "end_customer", "country": "TH", "demand_metric_tons": 37500, "marker-color": "#2980b9", "marker-symbol": "car" }, "geometry": { "type": "Point", "coordinates": [101.3735, 13.5935] } },
    { "type": "Feature", "properties": { "name": "Isuzu Motors (Gateway)", "type": "end_customer", "country": "TH", "demand_metric_tons": 28000, "marker-color": "#2980b9", "marker-symbol": "car" }, "geometry": { "type": "Point", "coordinates": [101.3698, 13.5852] } },
    { "type": "Feature", "properties": { "name": "Mitsubishi Motors", "type": "end_customer", "country": "TH", "demand_metric_tons": 26600, "marker-color": "#2980b9", "marker-symbol": "car" }, "geometry": { "type": "Point", "coordinates": [100.9161, 13.0844] } },
    { "type": "Feature", "properties": { "name": "AutoAlliance (Ford/Mazda)", "type": "end_customer", "country": "TH", "demand_metric_tons": 24500, "marker-color": "#2980b9", "marker-symbol": "car" }, "geometry": { "type": "Point", "coordinates": [101.2185, 12.9774] } },

    { "type": "Feature", "properties": { "name": "East Nippon Works (Kashima)", "type": "steelwork", "country": "JP", "marker-color": "#c0392b", "marker-symbol": "industry" }, "geometry": { "type": "Point", "coordinates": [140.7070, 35.9230] } },
    { "type": "Feature", "properties": { "name": "Port of Kashima", "type": "export_port", "country": "JP", "marker-color": "#e67e22", "marker-symbol": "harbor" }, "geometry": { "type": "Point", "coordinates": [140.7120, 35.9180] } },
    { "type": "Feature", "properties": { "name": "Laem Chabang Port", "type": "import_port", "country": "TH", "marker-color": "#e67e22", "marker-symbol": "harbor" }, "geometry": { "type": "Point", "coordinates": [100.8947, 13.0587] } },
    { "type": "Feature", "properties": { "name": "Nippon Steel Pipe (Thailand)", "type": "factory", "country": "TH", "marker-color": "#8e44ad", "marker-symbol": "industry" }, "geometry": { "type": "Point", "coordinates": [101.1712, 13.0185] } },
    { "type": "Feature", "properties": { "name": "Thai Honda", "type": "end_customer", "country": "TH", "demand_metric_tons": 7000, "marker-color": "#27ae60", "marker-symbol": "car" }, "geometry": { "type": "Point", "coordinates": [100.7954, 13.7845] } },
    { "type": "Feature", "properties": { "name": "Yamaha Motor", "type": "end_customer", "country": "TH", "demand_metric_tons": 3500, "marker-color": "#27ae60", "marker-symbol": "car" }, "geometry": { "type": "Point", "coordinates": [100.7180, 13.6110] } },
    { "type": "Feature", "properties": { "name": "Thai Summit Group", "type": "end_customer", "country": "TH", "demand_metric_tons": 5000, "marker-color": "#27ae60", "marker-symbol": "car" }, "geometry": { "type": "Point", "coordinates": [100.6725, 13.6185] } },
    { "type": "Feature", "properties": { "name": "Denso (Thailand)", "type": "end_customer", "country": "TH", "demand_metric_tons": 4200, "marker-color": "#27ae60", "marker-symbol": "car" }, "geometry": { "type": "Point", "coordinates": [101.0020, 13.4075] } },

    { "type": "Feature", "properties": { "name": "Kyushu Works (Yawata)", "type": "steelwork", "country": "JP", "marker-color": "#c0392b", "marker-symbol": "industry" }, "geometry": { "type": "Point", "coordinates": [130.8314, 33.9056] } },
    { "type": "Feature", "properties": { "name": "Port of Kitakyushu (Yawata)", "type": "export_port", "country": "JP", "marker-color": "#e67e22", "marker-symbol": "harbor" }, "geometry": { "type": "Point", "coordinates": [130.8252, 33.9185] } },
    { "type": "Feature", "properties": { "name": "Nippon Steel Steel Processing", "type": "factory", "country": "TH", "marker-color": "#8e44ad", "marker-symbol": "industry" }, "geometry": { "type": "Point", "coordinates": [101.1467, 13.0033] } },
    { "type": "Feature", "properties": { "name": "Topura (Thailand)", "type": "end_customer", "country": "TH", "demand_metric_tons": 3300, "marker-color": "#16a085", "marker-symbol": "car" }, "geometry": { "type": "Point", "coordinates": [101.1645, 12.9924] } },
    { "type": "Feature", "properties": { "name": "Thai Meira", "type": "end_customer", "country": "TH", "demand_metric_tons": 2500, "marker-color": "#16a085", "marker-symbol": "car" }, "geometry": { "type": "Point", "coordinates": [101.1590, 12.9980] } },
    { "type": "Feature", "properties": { "name": "Aisin Takaoka", "type": "end_customer", "country": "TH", "demand_metric_tons": 2000, "marker-color": "#16a085", "marker-symbol": "car" }, "geometry": { "type": "Point", "coordinates": [101.0180, 13.0780] } }

  ]
}
