{
  "type": "FeatureCollection",
  "features": [
    {
      "type": "Feature",
      "properties": { "arc_id": "Nagoya-to-LCB", "name": "Nagoya Works to Laem Chabang (Sea)" },
      "geometry": {
        "type": "LineString",
        "coordinates": [
          [136.8872, 35.0444], [136.8775, 35.0531], [122.0, 20.0], [110.0, 10.0], [104.5, 8.5], [100.8947, 13.0587]
        ]
      }
    },
    {
      "type": "Feature",
      "properties": { "arc_id": "LCB-to-NSSUS", "name": "Laem Chabang to NS-Siam United Steel" },
      "geometry": {
        "type": "LineString",
        "coordinates": [[100.8947, 13.0587], [101.1444, 12.6953]]
      }
    },
    {
      "type": "Feature",
      "properties": { "arc_id": "NSSUS-to-Toyota", "name": "NSSUS to Toyota Gateway", "vol": 37500 },
      "geometry": { "type": "LineString", "coordinates": [[101.1444, 12.6953], [101.3735, 13.5935]] }
    },
    {
      "type": "Feature",
      "properties": { "arc_id": "NSSUS-to-Isuzu", "name": "NSSUS to Isuzu Gateway", "vol": 28000 },
      "geometry": { "type": "LineString", "coordinates": [[101.1444, 12.6953], [101.3698, 13.5852]] }
    },
    {
      "type": "Feature",
      "properties": { "arc_id": "Kashima-to-LCB", "name": "Kashima Works to Laem Chabang (Sea)" },
      "geometry": {
        "type": "LineString",
        "coordinates": [
          [140.7070, 35.9230], [140.7120, 35.9180], [123.5, 21.0], [112.0, 11.0], [104.5, 8.5], [100.8947, 13.0587]
        ]
      }
    },
    {
      "type": "Feature",
      "properties": { "arc_id": "LCB-to-NSPT", "name": "Laem Chabang to Nippon Steel Pipe" },
      "geometry": {
        "type": "LineString",
        "coordinates": [[100.8947, 13.0587], [101.1712, 13.0185]]
      }
    },
    {
      "type": "Feature",
      "properties": { "arc_id": "NSPT-to-ThaiHonda", "name": "NSPT to Thai Honda", "vol": 7000 },
      "geometry": { "type": "LineString", "coordinates": [[101.1712, 13.0185], [100.7954, 13.7845]] }
    },
    {
      "type": "Feature",
      "properties": { "arc_id": "NSPT-to-Yamaha", "name": "NSPT to Yamaha Motor", "vol": 3500 },
      "geometry": { "type": "LineString", "coordinates": [[101.1712, 13.0185], [100.7180, 13.6110]] }
    },
    {
      "type": "Feature",
      "properties": { "arc_id": "Yawata-to-LCB", "name": "Yawata Works to Laem Chabang (Sea)" },
      "geometry": {
        "type": "LineString",
        "coordinates": [
          [130.8314, 33.9056], [130.8252, 33.9185], [119.5, 18.5], [110.0, 9.5], [104.5, 8.5], [100.8947, 13.0587]
        ]
      }
    },
    {
      "type": "Feature",
      "properties": { "arc_id": "LCB-to-NSSP", "name": "Laem Chabang to Steel Processing" },
      "geometry": {
        "type": "LineString",
        "coordinates": [[100.8947, 13.0587], [101.1467, 13.0033]]
      }
    },
    {
      "type": "Feature",
      "properties": { "arc_id": "NSSP-to-Topura", "name": "NSSP to Topura Thailand", "vol": 3300 },
      "geometry": { "type": "LineString", "coordinates": [[101.1467, 13.0033], [101.1645, 12.9924]] }
    },
    {
      "type": "Feature",
      "properties": { "arc_id": "NSSP-to-Aisin", "name": "NSSP to Aisin Takaoka", "vol": 2000 },
      "geometry": { "type": "LineString", "coordinates": [[101.1467, 13.0033], [101.0180, 13.0780]] }
    }
  ]
}
